SCD 1                   
1 22490U 93009B   26162.56778659  .00000360  00000+0  47689-4 0  9994
2 22490  24.9685 242.2746 0042181  78.5920 305.7063 14.46117050760306
TECHSAT 1B (GO-32)      
1 25397U 98043D   26162.58543429  .00000048  00000+0  41012-4 0  9990
2 25397  99.0065 155.2028 0000734 176.4907 183.6276 14.24427354450534
SCD 2                   
1 25504U 98060A   26162.15226959  .00000361  00000+0  50104-4 0  9998
2 25504  24.9944 109.3743 0016932  60.0003 324.7192 14.45523442459456
DLR-TUBSAT              
1 25757U 99029B   26162.57554073  .00000082  00000+0  31892-4 0  9994
2 25757  98.6694 157.8950 0014412  12.1658 347.9882 14.52425467432437
TERRA                   
1 25994U 99068A   26162.68540744  .00000325  00000+0  75102-4 0  9994
2 25994  97.9458 212.4496 0001173 212.4483 258.7120 14.61098743408805
MAROC-TUBSAT            
1 27004U 01056D   26162.74659037 -.00000011  00000+0  40065-4 0  9994
2 27004  99.8079 339.5037 0020165 154.9043 274.8986 13.70262256225442
AQUA                    
1 27424U 02022A   26162.71457288  .00000679  00000+0  14483-3 0  9998
2 27424  98.4275 131.8881 0001323  53.1553 358.2903 14.62149926282474
SHIYAN-1 (SY-1)         
1 28220U 04012A   26162.50740742  .00013024  00000+0  40292-3 0  9996
2 28220  97.8695 240.2070 0006063  51.0427 309.1354 15.33617096210222
AURA                    
1 28376U 04026A   26162.64532216  .00000661  00000+0  14363-3 0  9996
2 28376  98.3416 119.0529 0001281  72.5453 287.5887 14.61320797165405
IRS-P5 (CARTOSAT-1)     
1 28649U 05017A   26162.57537360  .00001079  00000+0  11434-3 0  9997
2 28649  97.5309 185.8944 0002678  87.5570 272.5956 14.91034548142987
SINAH 1                 
1 28893U 05043D   26162.65535420  .00000267  00000+0  60222-4 0  9999
2 28893  98.2853 296.9450 0013220 295.8226  64.1612 14.64154026 99713
RESURS-DK 1             
1 29228U 06021A   26162.68096205  .00002244  00000+0  13218-3 0  9994
2 29228  69.9338 353.8061 0006682 296.0141  64.0336 15.13193083101743
ARIRANG-2 (KOMPSAT-2)   
1 29268U 06031A   26162.62836795  .00000103  00000+0  27710-4 0  9994
2 29268  97.8311 347.3444 0015937  90.6429   0.9235 14.64656121 60665
LAPAN-TUBSAT            
1 29709U 07001A   26162.73262131 -.00000075  00000+0 -19990-5 0  9993
2 29709  98.1343 161.8336 0011464 197.8214 162.2600 14.85942327 50347
HAIYANG-1B              
1 31113U 07010A   26162.55118838  .00000078  00000+0  45317-4 0  9991
2 31113  98.3492 144.6150 0012676 213.8239 146.2137 14.31025505999824
COSMO-SKYMED 1          
1 31598U 07023A   26162.72115240  .00002105  00000+0  18782-3 0  9993
2 31598  97.8848 354.5319 0000996  88.5169 271.6167 14.97073642 28972
TERRASAR-X              
1 31698U 07026A   26160.28753291  .00000433  00000+0  23833-4 0  9996
2 31698  97.4448 168.1064 0001684  80.8129 279.3296 15.19149435 52027
WORLDVIEW-1 (WV-1)      
1 32060U 07041A   26162.64628874  .00005369  00000+0  22320-3 0  9999
2 32060  97.3865 282.4701 0002767  36.7309 323.4118 15.24205668 42035
YAOGAN-3                
1 32289U 07055A   26162.69057772  .00001788  00000+0  18760-3 0  9999
2 32289  97.8158 192.6224 0001804  86.6218 273.5206 14.90758217  5053
COSMO-SKYMED 2          
1 32376U 07059A   26162.69268648  .00000373  00000+0  53384-4 0  9997
2 32376  97.8885 346.3705 0001383  85.7037 274.4334 14.82150460  1190
RADARSAT-2              
1 32382U 07061A   26162.72002554 -.00000147  00000+0 -40248-4 0  9999
2 32382  98.5782 169.7306 0001319  82.7015 277.4317 14.29982950965176
CARTOSAT-2A             
1 32783U 08021A   26162.70265910  .00001104  00000+0  15513-3 0  9994
2 32783  97.7639 211.5986 0012935 124.8651 235.3779 14.79231986977992
HUANJING 1A (HJ-1A)     
1 33320U 08041A   26162.70466561  .00000672  00000+0  86737-4 0  9995
2 33320  97.6679 148.7546 0019511 152.0792 208.1474 14.83971862957595
HUANJING 1B (HJ-1B)     
1 33321U 08041B   26162.73871302  .00001231  00000+0  15507-3 0  9990
2 33321  97.6517 151.9760 0035551 199.0029 160.9862 14.83309347957608
GEOEYE 1                
1 33331U 08042A   26162.68686538  .00000382  00000+0  80616-4 0  9991
2 33331  98.1236 236.6877 0005539  82.6962 277.4870 14.64720710949344
THEOS                   
1 33396U 08049A   26162.68467359  .00000082  00000+0  58328-4 0  9999
2 33396  98.5576 220.1470 0001263  79.2516 280.8803 14.20132882917180
COSMO-SKYMED 3          
1 33412U 08054A   26162.76465289  .00003355  00000+0  22851-3 0  9990
2 33412  97.8286  21.2462 0014411 287.2533  72.7117 15.06914614956128
YAOGAN-4                
1 33446U 08061A   26162.70258333  .00000844  00000+0  10973-3 0  9991
2 33446  97.9309  96.2535 0015781  88.6296 271.6725 14.83189729944852
GOSAT (IBUKI)           
1 33492U 09002A   26162.54742248  .00000995  00000+0  18396-3 0  9997
2 33492  98.0885 273.6993 0001611  87.9943 272.1446 14.67539921930633
DEIMOS-1                
1 35681U 09041A   26162.69237451  .00000788  00000+0  12360-3 0  9998
2 35681  97.7397 320.1589 0001300 137.8352 222.2958 14.75233344906076
